{"type": "FeatureCollection", "features": [ {"type": "Feature", "properties": {"norad_id": 66859, "name": "STARLINK-35646", "group": "last-30-days", "lat": 42.42668987831878, "lon": 138.07864311909776, "alt_km": 409.0352826890603, "timestamp": "2025-12-26T21:25:51.734586+00:00", "meta": {"OBJECT_NAME": "STARLINK-35646", "OBJECT_ID": "2025-281M", "EPOCH": "2025-12-26T14:00:04.000032", "MEAN_MOTION": 15.50559945, "ECCENTRICITY": 0.00010255, "INCLINATION": 43.0001, "RA_OF_ASC_NODE": 38.6505, "ARG_OF_PERICENTER": 269.4109, "MEAN_ANOMALY": 258.6975, "EPHEMERIS_TYPE": 0, "CLASSIFICATION_TYPE": "U", "NORAD_CAT_ID": 66859, "ELEMENT_SET_NO": 999, "REV_AT_EPOCH": 361, "BSTAR": 1.6179345e-05, "MEAN_MOTION_DOT": 6.07e-06, "MEAN_MOTION_DDOT": 0}, "tle": {"line1": "1 66859U 25281M   25360.58337963  .00000607  00000+0  16179-4 0  9992", "line2": "2 66859  43.0001  38.6505 0001025 269.4109 258.6975 15.50559945  3610"}}, "geometry": {"type": "Point", "coordinates": [138.07864311909776, 42.42668987831878]}}, {"type": "Feature", "properties": {"norad_id": 66860, "name": "STARLINK-35987", "group": "last-30-days", "lat": 40.45421491490866, "lon": 150.60092443157072, "alt_km": 409.67014218047643, "timestamp": "2025-12-26T21:25:51.734598+00:00", "meta": {"OBJECT_NAME": "STARLINK-35987", "OBJECT_ID": "2025-281N", "EPOCH": "2025-12-26T14:00:04.000032", "MEAN_MOTION": 15.50562947, "ECCENTRICITY": 0.00015073, "INCLINATION": 43.0001, "RA_OF_ASC_NODE": 38.6263, "ARG_OF_PERICENTER": 284.5794, "MEAN_ANOMALY": 253.1134, "EPHEMERIS_TYPE": 0, "CLASSIFICATION_TYPE": "U", "NORAD_CAT_ID": 66860, "ELEMENT_SET_NO": 999, "REV_AT_EPOCH": 361, "BSTAR": -5.4739607e-05, "MEAN_MOTION_DOT": -3.55e-05, "MEAN_MOTION_DDOT": 0}, "tle": {"line1": "1 66860U 25281N   25360.58337963 -.00003550  00000+0 -54740-4 0  9992", "line2": "2 66860  43.0001  38.6263 0001507 284.5794 253.1134 15.50562947  3619"}}, "geometry": {"type": "Point", "coordinates": [150.60092443157072, 40.45421491490866]}}, {"type": "Feature", "properties": {"norad_id": 66861, "name": "STARLINK-35991", "group": "last-30-days", "lat": 41.802541282402096, "lon": 143.17709386537877, "alt_km": 409.0731262999707, "timestamp": "2025-12-26T21:25:51.734609+00:00", "meta": {"OBJECT_NAME": "STARLINK-35991", "OBJECT_ID": "2025-281P", "EPOCH": "2025-12-26T14:00:04.000032", "MEAN_MOTION": 15.50561003, "ECCENTRICITY": 9.459e-05, "INCLINATION": 43.0002, "RA_OF_ASC_NODE": 38.641, "ARG_OF_PERICENTER": 286.1304, "MEAN_ANOMALY": 245.8083, "EPHEMERIS_TYPE": 0, "CLASSIFICATION_TYPE": "U", "NORAD_CAT_ID": 66861, "ELEMENT_SET_NO": 999, "REV_AT_EPOCH": 361, "BSTAR": 2.9087673e-05, "MEAN_MOTION_DOT": 1.364e-05, "MEAN_MOTION_DDOT": 0}, "tle": {"line1": "1 66861U 25281P   25360.58337963  .00001364  00000+0  29088-4 0  9999", "line2": "2 66861  43.0002  38.6410 0000945 286.1304 245.8083 15.50561003  3618"}}, "geometry": {"type": "Point", "coordinates": [143.17709386537877, 41.802541282402096]}}, {"type": "Feature", "properties": {"norad_id": 66862, "name": "STARLINK-35974", "group": "last-30-days", "lat": 42.15635012374846, "lon": 140.53233873663265, "alt_km": 408.91632619560914, "timestamp": "2025-12-26T21:25:51.734619+00:00", "meta": {"OBJECT_NAME": "STARLINK-35974", "OBJECT_ID": "2025-281Q", "EPOCH": "2025-12-26T14:00:04.000032", "MEAN_MOTION": 15.50510255, "ECCENTRICITY": 0.00010008, "INCLINATION": 43.0003, "RA_OF_ASC_NODE": 38.6465, "ARG_OF_PERICENTER": 260.2125, "MEAN_ANOMALY": 269.7419, "EPHEMERIS_TYPE": 0, "CLASSIFICATION_TYPE": "U", "NORAD_CAT_ID": 66862, "ELEMENT_SET_NO": 999, "REV_AT_EPOCH": 351, "BSTAR": 0.0023362374, "MEAN_MOTION_DOT": 0.0013883, "MEAN_MOTION_DDOT": 0}, "tle": {"line1": "1 66862U 25281Q   25360.58337963  .00138830  00000+0  23362-2 0  9996", "line2": "2 66862  43.0003  38.6465 0001000 260.2125 269.7419 15.50510255  3517"}}, "geometry": {"type": "Point", "coordinates": [140.53233873663265, 42.15635012374846]}}, {"type": "Feature", "properties": {"norad_id": 66863, "name": "STARLINK-36134", "group": "last-30-days", "lat": 41.40604838669229, "lon": 145.6887212383392, "alt_km": 409.1954407851872, "timestamp": "2025-12-26T21:25:51.734629+00:00", "meta": {"OBJECT_NAME": "STARLINK-36134", "OBJECT_ID": "2025-281R", "EPOCH": "2025-12-26T14:00:04.000032", "MEAN_MOTION": 15.50560651, "ECCENTRICITY": 0.00010462, "INCLINATION": 43.0002, "RA_OF_ASC_NODE": 38.6364, "ARG_OF_PERICENTER": 292.4898, "MEAN_ANOMALY": 241.3684, "EPHEMERIS_TYPE": 0, "CLASSIFICATION_TYPE": "U", "NORAD_CAT_ID": 66863, "ELEMENT_SET_NO": 999, "REV_AT_EPOCH": 361, "BSTAR": 2.8237747e-05, "MEAN_MOTION_DOT": 1.314e-05, "MEAN_MOTION_DDOT": 0}, "tle": {"line1": "1 66863U 25281R   25360.58337963  .00001314  00000+0  28238-4 0  9992", "line2": "2 66863  43.0002  38.6364 0001046 292.4898 241.3684 15.50560651  3615"}}, "geometry": {"type": "Point", "coordinates": [145.6887212383392, 41.40604838669229]}}, {"type": "Feature", "properties": {"norad_id": 66864, "name": "STARLINK-36070", "group": "last-30-days", "lat": 40.98653555385538, "lon": 148.0073397134627, "alt_km": 409.1594848859286, "timestamp": "2025-12-26T21:25:51.734639+00:00", "meta": {"OBJECT_NAME": "STARLINK-36070", "OBJECT_ID": "2025-281S", "EPOCH": "2025-12-26T14:00:04.000032", "MEAN_MOTION": 15.505028, "ECCENTRICITY": 0.00010889, "INCLINATION": 43.0004, "RA_OF_ASC_NODE": 38.6317, "ARG_OF_PERICENTER": 259.5125, "MEAN_ANOMALY": 276.169, "EPHEMERIS_TYPE": 0, "CLASSIFICATION_TYPE": "U", "NORAD_CAT_ID": 66864, "ELEMENT_SET_NO": 999, "REV_AT_EPOCH": 364, "BSTAR": 0.0021996476, "MEAN_MOTION_DOT": 0.00130519, "MEAN_MOTION_DDOT": 0}, "tle": {"line1": "1 66864U 25281S   25360.58337963  .00130519  00000+0  21996-2 0  9995", "line2": "2 66864  43.0004  38.6317 0001088 259.5125 276.1690 15.50502800  3647"}}, "geometry": {"type": "Point", "coordinates": [148.0073397134627, 40.98653555385538]}}, {"type": "Feature", "properties": {"norad_id": 66865, "name": "STARLINK-36117", "group": "last-30-days", "lat": 39.90057905231737, "lon": 153.00748925732333, "alt_km": 409.5248163622973, "timestamp": "2025-12-26T21:25:51.734649+00:00", "meta": {"OBJECT_NAME": "STARLINK-36117", "OBJECT_ID": "2025-281T", "EPOCH": "2025-12-26T14:00:04.000032", "MEAN_MOTION": 15.50534808, "ECCENTRICITY": 0.00013392, "INCLINATION": 43.0003, "RA_OF_ASC_NODE": 38.6228, "ARG_OF_PERICENTER": 287.0502, "MEAN_ANOMALY": 252.5586, "EPHEMERIS_TYPE": 0, "CLASSIFICATION_TYPE": "U", "NORAD_CAT_ID": 66865, "ELEMENT_SET_NO": 999, "REV_AT_EPOCH": 361, "BSTAR": 0.0016998741, "MEAN_MOTION_DOT": 0.00100513, "MEAN_MOTION_DDOT": 0}, "tle": {"line1": "1 66865U 25281T   25360.58337963  .00100513  00000+0  16999-2 0  9994", "line2": "2 66865  43.0003  38.6228 0001339 287.0502 252.5586 15.50534808  3614"}}, "geometry": {"type": "Point", "coordinates": [153.00748925732333, 39.90057905231737]}}, {"type": "Feature", "properties": {"norad_id": 66866, "name": "STARLINK-36126", "group": "last-30-days", "lat": 39.336610218709886, "lon": 155.2255799229089, "alt_km": 409.316975769103, "timestamp": "2025-12-26T21:25:51.734659+00:00", "meta": {"OBJECT_NAME": "STARLINK-36126", "OBJECT_ID": "2025-281U", "EPOCH": "2025-12-26T14:00:04.000032", "MEAN_MOTION": 15.50504459, "ECCENTRICITY": 0.00010463, "INCLINATION": 43.0003, "RA_OF_ASC_NODE": 38.6174, "ARG_OF_PERICENTER": 254.0863, "MEAN_ANOMALY": 287.3536, "EPHEMERIS_TYPE": 0, "CLASSIFICATION_TYPE": "U", "NORAD_CAT_ID": 66866, "ELEMENT_SET_NO": 999, "REV_AT_EPOCH": 364, "BSTAR": 0.0022060294, "MEAN_MOTION_DOT": 0.00130913, "MEAN_MOTION_DDOT": 0}, "tle": {"line1": "1 66866U 25281U   25360.58337963  .00130913  00000+0  22060-2 0  9998", "line2": "2 66866  43.0003  38.6174 0001046 254.0863 287.3536 15.50504459  3647"}}, "geometry": {"type": "Point", "coordinates": [155.2255799229089, 39.336610218709886]}}, {"type": "Feature", "properties": {"norad_id": 66867, "name": "STARLINK-36101", "group": "last-30-days", "lat": 38.65278776440813, "lon": 157.67552785351216, "alt_km": 409.45095297335047, "timestamp": "2025-12-26T21:25:51.734671+00:00", "meta": {"OBJECT_NAME": "STARLINK-36101", "OBJECT_ID": "2025-281V", "EPOCH": "2025-12-26T14:00:04.000032", "MEAN_MOTION": 15.50558079, "ECCENTRICITY": 9.775e-05, "INCLINATION": 43, "RA_OF_ASC_NODE": 38.6122, "ARG_OF_PERICENTER": 253.3383, "MEAN_ANOMALY": 290.1094, "EPHEMERIS_TYPE": 0, "CLASSIFICATION_TYPE": "U", "NORAD_CAT_ID": 66867, "ELEMENT_SET_NO": 999, "REV_AT_EPOCH": 345, "BSTAR": 5.9556052e-05, "MEAN_MOTION_DOT": 3.151e-05, "MEAN_MOTION_DDOT": 0}, "tle": {"line1": "1 66867U 25281V   25360.58337963  .00003151  00000+0  59556-4 0  9994", "line2": "2 66867  43.0000  38.6122 0000977 253.3383 290.1094 15.50558079  3456"}}, "geometry": {"type": "Point", "coordinates": [157.67552785351216, 38.65278776440813]}}, {"type": "Feature", "properties": {"norad_id": 66868, "name": "STARLINK-36108", "group": "last-30-days", "lat": 37.97278244433036, "lon": 159.90979022735226, "alt_km": 409.6716488521033, "timestamp": "2025-12-26T21:25:51.734681+00:00", "meta": {"OBJECT_NAME": "STARLINK-36108", "OBJECT_ID": "2025-281W", "EPOCH": "2025-12-26T14:00:04.000032", "MEAN_MOTION": 15.50572454, "ECCENTRICITY": 0.00011332, "INCLINATION": 43.0002, "RA_OF_ASC_NODE": 38.6085, "ARG_OF_PERICENTER": 271.4424, "MEAN_ANOMALY": 273.8613, "EPHEMERIS_TYPE": 0, "CLASSIFICATION_TYPE": "U", "NORAD_CAT_ID": 66868, "ELEMENT_SET_NO": 999, "REV_AT_EPOCH": 345, "BSTAR": 0.00037945262, "MEAN_MOTION_DOT": 0.00021976, "MEAN_MOTION_DDOT": 0}, "tle": {"line1": "1 66868U 25281W   25360.58337963  .00021976  00000+0  37945-3 0  9997", "line2": "2 66868  43.0002  38.6085 0001133 271.4424 273.8613 15.50572454  3457"}}, "geometry": {"type": "Point", "coordinates": [159.90979022735226, 37.97278244433036]}}]}